{
    "links": {
        "self": "http://www.neowsapp.com/rest/v1/neo/3692291?api_key=iIulBulltgU6a56xZRHN4H3l9WmuAYTsLGpBGhQ2"
    },
    "id": "3692291",
    "neo_reference_id": "3692291",
    "name": "(2014 TN)",
    "designation": "2014 TN",
    "nasa_jpl_url": "http://ssd.jpl.nasa.gov/sbdb.cgi?sstr=3692291",
    "absolute_magnitude_h": 24.5,
    "estimated_diameter": {
        "kilometers": {
            "estimated_diameter_min": 0.0334622374,
            "estimated_diameter_max": 0.0748238376
        },
        "meters": {
            "estimated_diameter_min": 33.4622374455,
            "estimated_diameter_max": 74.8238376074
        },
        "miles": {
            "estimated_diameter_min": 0.0207924639,
            "estimated_diameter_max": 0.0464933628
        },
        "feet": {
            "estimated_diameter_min": 109.7842471007,
            "estimated_diameter_max": 245.4850393757
        }
    },
    "is_potentially_hazardous_asteroid": false,
    "close_approach_data": [
        {
            "close_approach_date": "2014-09-26",
            "close_approach_date_full": "2014-Sep-26 15:55",
            "epoch_date_close_approach": 1411746900000,
            "relative_velocity": {
                "kilometers_per_second": "22.0585094278",
                "kilometers_per_hour": "79410.6339401459",
                "miles_per_hour": "49342.6797390868"
            },
            "miss_distance": {
                "astronomical": "0.0436201803",
                "lunar": "16.9682501367",
                "kilometers": "6525486.061895961",
                "miles": "4054749.0176518218"
            },
            "orbiting_body": "Earth"
        }
    ],
    "orbital_data": {
        "orbit_id": "4",
        "orbit_determination_date": "2019-07-11 06:07:09",
        "first_observation_date": "2014-10-01",
        "last_observation_date": "2014-10-03",
        "data_arc_in_days": 2,
        "observations_used": 14,
        "orbit_uncertainty": "9",
        "minimum_orbit_intersection": ".0297423",
        "jupiter_tisserand_invariant": "3.635",
        "epoch_osculation": "2456932.5",
        "eccentricity": ".7045518674952823",
        "semi_major_axis": "1.853454741593886",
        "inclination": "12.29769498534908",
        "ascending_node_longitude": "192.4334331686929",
        "orbital_period": "921.6614131880151",
        "perihelion_distance": ".5475997420859279",
        "perihelion_argument": "76.13263516301667",
        "aphelion_distance": "3.159309741101845",
        "perihelion_time": "2456878.450362631358",
        "mean_anomaly": "21.11173276247575",
        "mean_motion": ".3905989714322146",
        "equinox": "J2000",
        "orbit_class": {
            "orbit_class_type": "APO",
            "orbit_class_description": "Near-Earth asteroid orbits which cross the Earth’s orbit similar to that of 1862 Apollo",
            "orbit_class_range": "a (semi-major axis) > 1.0 AU; q (perihelion) < 1.017 AU"
        }
    },
    "is_sentry_object": false
}